start=new Date('2022-11-09T00:00:00.000Z').valueOf();
sats=[{"MEAN_MOTION_DOT":"0.00003361","MEAN_MOTION":"15.06418194","NORAD_CAT_ID":"47888","PERIAPSIS":"545.712","LAUNCH_DATE":"2021-03-14","RA_OF_ASC_NODE":"334.5023","MEAN_ELEMENT_THEORY":"SGP4","PERIOD":"95.591","BSTAR":"0.00024432000000","EPHEMERIS_TYPE":"0","MEAN_MOTION_DDOT":"0.0000000000000","TIME_SYSTEM":"UTC","SEMIMAJOR_AXIS":"6925.293","MEAN_ANOMALY":"321.2230","DECAY_DATE":null,"ECCENTRICITY":"0.00020880","COUNTRY_CODE":"US","CENTER_NAME":"EARTH","REF_FRAME":"TEME","RCS_SIZE":"LARGE","SITE":"AFETR","CLASSIFICATION_TYPE":"U","EPOCH":"2022-11-08T18:57:15.745248","OBJECT_NAME":"STARLINK-2348","APOAPSIS":"548.604","OBJECT_ID":"2021-021AE","ARG_OF_PERICENTER":"38.8909","ELEMENT_SET_NO":"999","OBJECT_TYPE":"PAYLOAD","TLE_LINE2":"2 47888  53.0564 334.5023 0002088  38.8909 321.2230 15.06418194 92783","GP_ID":"217200224","TLE_LINE1":"1 47888U 21021AE  22312.78976557  .00003361  00000-0  24432-3 0  9996","REV_AT_EPOCH":"9278","INCLINATION":"53.0564","FILE":"3649076"},{"MEAN_ANOMALY":"312.9873","ECCENTRICITY":"0.00022310","DECAY_DATE":null,"COUNTRY_CODE":"US","REF_FRAME":"TEME","CENTER_NAME":"EARTH","MEAN_MOTION_DOT":"0.00003923","MEAN_MOTION":"15.06410217","LAUNCH_DATE":"2021-03-14","RA_OF_ASC_NODE":"334.4615","NORAD_CAT_ID":"47889","PERIAPSIS":"545.637","PERIOD":"95.591","EPHEMERIS_TYPE":"0","BSTAR":"0.00028204000000","MEAN_ELEMENT_THEORY":"SGP4","TIME_SYSTEM":"UTC","SEMIMAJOR_AXIS":"6925.317","MEAN_MOTION_DDOT":"0.0000000000000","TLE_LINE2":"2 47889  53.0541 334.4615 0002231  47.1303 312.9873 15.06410217 92830","REV_AT_EPOCH":"9283","TLE_LINE1":"1 47889U 21021AF  22312.80083967  .00003923  00000-0  28204-3 0  9999","INCLINATION":"53.0541","FILE":"3649076","GP_ID":"217201469","RCS_SIZE":"LARGE","SITE":"AFETR","EPOCH":"2022-11-08T19:13:12.547488","OBJECT_NAME":"STARLINK-2349","CLASSIFICATION_TYPE":"U","ARG_OF_PERICENTER":"47.1303","APOAPSIS":"548.727","OBJECT_ID":"2021-021AF","ELEMENT_SET_NO":"999","OBJECT_TYPE":"PAYLOAD"},{"PERIAPSIS":"335.585","NORAD_CAT_ID":"47890","RA_OF_ASC_NODE":"239.0406","LAUNCH_DATE":"2021-03-14","MEAN_MOTION":"15.76360647","MEAN_MOTION_DOT":"0.00089205","MEAN_MOTION_DDOT":"0.0000000000000","TIME_SYSTEM":"UTC","SEMIMAJOR_AXIS":"6718.899","MEAN_ELEMENT_THEORY":"SGP4","BSTAR":"0.00055125000000","EPHEMERIS_TYPE":"0","PERIOD":"91.350","ECCENTRICITY":"0.00077080","DECAY_DATE":null,"COUNTRY_CODE":"US","MEAN_ANOMALY":"89.0634","CENTER_NAME":"EARTH","REF_FRAME":"TEME","OBJECT_NAME":"STARLINK-2350","CLASSIFICATION_TYPE":"U","EPOCH":"2022-11-08T19:51:57.688128","SITE":"AFETR","RCS_SIZE":"LARGE","ELEMENT_SET_NO":"999","OBJECT_TYPE":"PAYLOAD","OBJECT_ID":"2021-021AG","APOAPSIS":"345.943","ARG_OF_PERICENTER":"270.9502","TLE_LINE2":"2 47890  53.0472 239.0406 0007708 270.9502  89.0634 15.76360647 93188","GP_ID":"217201209","FILE":"3649076","TLE_LINE1":"1 47890U 21021AG  22312.82775102  .00089205  00000-0  55125-3 0  9991","REV_AT_EPOCH":"9318","INCLINATION":"53.0472"},{"MEAN_MOTION_DOT":"0.00003933","MEAN_MOTION":"15.06407668","LAUNCH_DATE":"2021-03-14","RA_OF_ASC_NODE":"346.2136","NORAD_CAT_ID":"47891","PERIAPSIS":"545.899","PERIOD":"95.592","EPHEMERIS_TYPE":"0","BSTAR":"0.00028276000000","MEAN_ELEMENT_THEORY":"SGP4","SEMIMAJOR_AXIS":"6925.325","TIME_SYSTEM":"UTC","MEAN_MOTION_DDOT":"0.0000000000000","MEAN_ANOMALY":"318.2261","DECAY_DATE":null,"ECCENTRICITY":"0.00018640","COUNTRY_CODE":"US","REF_FRAME":"TEME","CENTER_NAME":"EARTH","RCS_SIZE":"LARGE","SITE":"AFETR","EPOCH":"2022-11-08T09:49:16.054176","OBJECT_NAME":"STARLINK-2351","CLASSIFICATION_TYPE":"U","ARG_OF_PERICENTER":"41.8871","APOAPSIS":"548.481","OBJECT_ID":"2021-021AH","OBJECT_TYPE":"PAYLOAD","ELEMENT_SET_NO":"999","TLE_LINE2":"2 47891  53.0550 346.2136 0001864  41.8871 318.2261 15.06407668 92740","INCLINATION":"53.0550","TLE_LINE1":"1 47891U 21021AH  22312.40921359  .00003933  00000-0  28276-3 0  9994","REV_AT_EPOCH":"9274","FILE":"3648805","GP_ID":"217169183"},{"GP_ID":"217200718","FILE":"3649076","TLE_LINE1":"1 47892U 21021AJ  22312.86286565  .00003075  00000-0  16970-3 0  9993","INCLINATION":"53.0555","REV_AT_EPOCH":"9292","TLE_LINE2":"2 47892  53.0555 325.0435 0003439  19.1036 341.0086 15.16920584 92921","OBJECT_ID":"2021-021AJ","APOAPSIS":"517.527","ARG_OF_PERICENTER":"19.1036","OBJECT_TYPE":"PAYLOAD","ELEMENT_SET_NO":"999","RCS_SIZE":"LARGE","OBJECT_NAME":"STARLINK-2352","CLASSIFICATION_TYPE":"U","EPOCH":"2022-11-08T20:42:31.592160","SITE":"AFETR","CENTER_NAME":"EARTH","REF_FRAME":"TEME","COUNTRY_CODE":"US","DECAY_DATE":null,"ECCENTRICITY":"0.00034390","MEAN_ANOMALY":"341.0086","MEAN_ELEMENT_THEORY":"SGP4","EPHEMERIS_TYPE":"0","BSTAR":"0.00016970000000","PERIOD":"94.929","MEAN_MOTION_DDOT":"0.0000000000000","SEMIMAJOR_AXIS":"6893.291","TIME_SYSTEM":"UTC","MEAN_MOTION":"15.16920584","MEAN_MOTION_DOT":"0.00003075","PERIAPSIS":"512.785","NORAD_CAT_ID":"47892","RA_OF_ASC_NODE":"325.0435","LAUNCH_DATE":"2021-03-14"},{"TLE_LINE2":"2 47894  53.0541 334.6202 0002115  48.6445 311.4726 15.06408149 92724","INCLINATION":"53.0541","TLE_LINE1":"1 47894U 21021AL  22312.76398414  .00002467  00000-0  18440-3 0  9999","REV_AT_EPOCH":"9272","FILE":"3649076","GP_ID":"217200976","RCS_SIZE":"LARGE","SITE":"AFETR","OBJECT_NAME":"STARLINK-2354","EPOCH":"2022-11-08T18:20:08.229696","CLASSIFICATION_TYPE":"U","ARG_OF_PERICENTER":"48.6445","APOAPSIS":"548.653","OBJECT_ID":"2021-021AL","ELEMENT_SET_NO":"999","OBJECT_TYPE":"PAYLOAD","MEAN_ANOMALY":"311.4726","DECAY_DATE":null,"COUNTRY_CODE":"US","ECCENTRICITY":"0.00021150","REF_FRAME":"TEME","CENTER_NAME":"EARTH","MEAN_MOTION_DOT":"0.00002467","MEAN_MOTION":"15.06408149","LAUNCH_DATE":"2021-03-14","RA_OF_ASC_NODE":"334.6202","NORAD_CAT_ID":"47894","PERIAPSIS":"545.724","PERIOD":"95.592","EPHEMERIS_TYPE":"0","BSTAR":"0.00018440000000","MEAN_ELEMENT_THEORY":"SGP4","TIME_SYSTEM":"UTC","SEMIMAJOR_AXIS":"6925.324","MEAN_MOTION_DDOT":"0.0000000000000"},{"FILE":"3649076","TLE_LINE1":"1 47895U 21021AM  22312.77503997  .00002366  00000-0  17762-3 0  9999","INCLINATION":"53.0534","REV_AT_EPOCH":"9275","GP_ID":"217201703","TLE_LINE2":"2 47895  53.0534 334.5540 0001328  63.8127 296.2999 15.06408696 92754","OBJECT_TYPE":"PAYLOAD","ELEMENT_SET_NO":"999","ARG_OF_PERICENTER":"63.8127","OBJECT_ID":"2021-021AM","APOAPSIS":"548.107","EPOCH":"2022-11-08T18:36:03.453408","OBJECT_NAME":"STARLINK-2355","CLASSIFICATION_TYPE":"U","SITE":"AFETR","RCS_SIZE":"LARGE","REF_FRAME":"TEME","CENTER_NAME":"EARTH","DECAY_DATE":null,"ECCENTRICITY":"0.00013280","COUNTRY_CODE":"US","MEAN_ANOMALY":"296.2999","TIME_SYSTEM":"UTC","SEMIMAJOR_AXIS":"6925.322","MEAN_MOTION_DDOT":"0.0000000000000","EPHEMERIS_TYPE":"0","BSTAR":"0.00017762000000","PERIOD":"95.592","MEAN_ELEMENT_THEORY":"SGP4","RA_OF_ASC_NODE":"334.5540","LAUNCH_DATE":"2021-03-14","PERIAPSIS":"546.267","NORAD_CAT_ID":"47895","MEAN_MOTION":"15.06408696","MEAN_MOTION_DOT":"0.00002366"},{"ECCENTRICITY":"0.00017330","DECAY_DATE":null,"COUNTRY_CODE":"US","MEAN_ANOMALY":"302.5168","CENTER_NAME":"EARTH","REF_FRAME":"TEME","PERIAPSIS":"545.984","NORAD_CAT_ID":"47896","RA_OF_ASC_NODE":"351.3824","LAUNCH_DATE":"2021-03-14","MEAN_MOTION":"15.06409519","MEAN_MOTION_DOT":"0.00007380","MEAN_MOTION_DDOT":"0.0000000000000","TIME_SYSTEM":"UTC","SEMIMAJOR_AXIS":"6925.319","MEAN_ELEMENT_THEORY":"SGP4","EPHEMERIS_TYPE":"0","BSTAR":"0.00051367000000","PERIOD":"95.592","TLE_LINE2":"2 47896  53.0548 351.3824 0001733  57.5988 302.5168 15.06409519 92021","GP_ID":"217145550","FILE":"3648679","REV_AT_EPOCH":"9202","TLE_LINE1":"1 47896U 21021AN  22312.37003965  .00007380  00000-0  51367-3 0  9996","INCLINATION":"53.0548","OBJECT_NAME":"STARLINK-2356","EPOCH":"2022-11-08T08:52:51.425760","CLASSIFICATION_TYPE":"U","SITE":"AFETR","RCS_SIZE":"LARGE","ELEMENT_SET_NO":"999","OBJECT_TYPE":"PAYLOAD","OBJECT_ID":"2021-021AN","APOAPSIS":"548.385","ARG_OF_PERICENTER":"57.5988"},{"GP_ID":"217169934","INCLINATION":"53.0561","TLE_LINE1":"1 47897U 21021AP  22312.37601124  .00004159  00000-0  29795-3 0  9999","REV_AT_EPOCH":"9272","FILE":"3648805","TLE_LINE2":"2 47897  53.0561 336.3572 0001609  58.1853 301.9292 15.06399734 92725","ELEMENT_SET_NO":"999","OBJECT_TYPE":"PAYLOAD","APOAPSIS":"548.329","OBJECT_ID":"2021-021AP","ARG_OF_PERICENTER":"58.1853","SITE":"AFETR","EPOCH":"2022-11-08T09:01:27.371136","OBJECT_NAME":"STARLINK-2357","CLASSIFICATION_TYPE":"U","RCS_SIZE":"LARGE","CENTER_NAME":"EARTH","REF_FRAME":"TEME","MEAN_ANOMALY":"301.9292","DECAY_DATE":null,"COUNTRY_CODE":"US","ECCENTRICITY":"0.00016090","MEAN_MOTION_DDOT":"0.0000000000000","SEMIMAJOR_AXIS":"6925.349","TIME_SYSTEM":"UTC","MEAN_ELEMENT_THEORY":"SGP4","PERIOD":"95.592","BSTAR":"0.00029795000000","EPHEMERIS_TYPE":"0","NORAD_CAT_ID":"47897","PERIAPSIS":"546.100","LAUNCH_DATE":"2021-03-14","RA_OF_ASC_NODE":"336.3572","MEAN_MOTION_DOT":"0.00004159","MEAN_MOTION":"15.06399734"},{"GP_ID":"217201470","FILE":"3649076","REV_AT_EPOCH":"9272","TLE_LINE1":"1 47898U 21021AQ  22312.76766348  .00003396  00000-0  24672-3 0  9994","INCLINATION":"53.0549","TLE_LINE2":"2 47898  53.0549 334.6022 0001987  52.2364 307.8805 15.06413344 92723","OBJECT_ID":"2021-021AQ","APOAPSIS":"548.549","ARG_OF_PERICENTER":"52.2364","OBJECT_TYPE":"PAYLOAD","ELEMENT_SET_NO":"999","RCS_SIZE":"LARGE","OBJECT_NAME":"STARLINK-2358","EPOCH":"2022-11-08T18:25:26.124672","CLASSIFICATION_TYPE":"U","SITE":"AFETR","CENTER_NAME":"EARTH","REF_FRAME":"TEME","DECAY_DATE":null,"COUNTRY_CODE":"US","ECCENTRICITY":"0.00019870","MEAN_ANOMALY":"307.8805","MEAN_ELEMENT_THEORY":"SGP4","BSTAR":"0.00024672000000","EPHEMERIS_TYPE":"0","PERIOD":"95.591","MEAN_MOTION_DDOT":"0.0000000000000","TIME_SYSTEM":"UTC","SEMIMAJOR_AXIS":"6925.308","MEAN_MOTION":"15.06413344","MEAN_MOTION_DOT":"0.00003396","PERIAPSIS":"545.797","NORAD_CAT_ID":"47898","RA_OF_ASC_NODE":"334.6022","LAUNCH_DATE":"2021-03-14"}];
